[{"OBJECT_NAME":"STARLINK-2155","OBJECT_ID":"2021-041E","EPOCH":"2026-03-09T13:00:51.683040","MEAN_MOTION":15.30214781,"ECCENTRICITY":0.00012582,"INCLINATION":53.1599,"RA_OF_ASC_NODE":127.3794,"ARG_OF_PERICENTER":83.6523,"MEAN_ANOMALY":276.4621,"EPHEMERIS_TYPE":0,"CLASSIFICATION_TYPE":"U","NORAD_CAT_ID":48557,"ELEMENT_SET_NO":999,"REV_AT_EPOCH":26525,"BSTAR":0.00036090745,"MEAN_MOTION_DOT":0.0001035,"MEAN_MOTION_DDOT":0},{"OBJECT_NAME":"OBJECT F","OBJECT_ID":"2021-022F","EPOCH":"2026-03-09T23:37:37.165152","MEAN_MOTION":15.31317672,"ECCENTRICITY":0.00120882,"INCLINATION":97.3982,"RA_OF_ASC_NODE":329.8375,"ARG_OF_PERICENTER":85.9268,"MEAN_ANOMALY":274.3355,"EPHEMERIS_TYPE":0,"CLASSIFICATION_TYPE":"U","NORAD_CAT_ID":47937,"ELEMENT_SET_NO":999,"REV_AT_EPOCH":27452,"BSTAR":0.00038690553,"MEAN_MOTION_DOT":0.00011656,"MEAN_MOTION_DDOT":0}]
